HORYU-4                 
1 41340U 16012D   21074.30847691  .00000965  00000-0  65640-4 0  9999
2 41340  31.0060  46.5712 0013739 317.4151  42.5419 15.01782240278624
E-ST@R-II               
1 41459U 16025D   21074.31558421  .00001531  00000-0  78628-4 0  9995
2 41459  98.1251 205.0230 0162186  20.2095 340.5590 15.07598252268236
AAUSAT 4                
1 41460U 16025E   21074.33054953  .00002843  00000-0  13671-3 0  9993
2 41460  98.1245 208.4586 0149253   5.5421 354.7505 15.10433529268503
BEESAT-4                
1 41619U 16040W   21074.12258107  .00003333  00000-0  13605-3 0  9992
2 41619  97.2820 132.8229 0009299 310.5142  49.5286 15.25056976250639
CANX-7                  
1 41788U 16059F   21074.22530175  .00014081  00000-0  16941-2 0  9995
2 41788  98.2531 175.9517 0032111 150.4847 209.8183 14.83662010239882
RAVAN                   
1 41849U 16067B   21074.27611294  .00001481  00000-0  12756-3 0  9990
2 41849  97.9502 195.1382 0009856  70.7115 289.5173 14.98914290237181
CELTEE 1                
1 41850U 16067C   21074.26468812  .00000908  00000-0  83390-4 0  9993
2 41850  97.9419 191.9925 0010096  71.9707 288.2614 14.97378776237026
OPTICUBE 04             
1 41851U 16067D   21074.31345500  .00000181  00000-0  20968-4 0  9993
2 41851  97.9404 191.4991 0009888  72.0648 288.1651 14.97056371237004
AEROCUBE 8D             
1 41852U 16067E   21074.32546269  .00000821  00000-0  76333-4 0  9998
2 41852  97.9407 191.3705 0010829  73.4724 286.7685 14.97129950236988
AEROCUBE 8C             
1 41853U 16067F   21074.56380217 -.00000006  00000-0  48028-5 0  9991
2 41853  97.9409 191.4905 0011187  71.5328 288.7108 14.97100531237012
PROMETHEUS 2-1          
1 41854U 16067G   21074.26582282  .00001392  00000-0  12446-3 0  9996
2 41854  97.9417 191.7107 0011619  73.8239 286.4260 14.97537597236991
PROMETHEUS 2-3          
1 41855U 16067H   21074.26423889  .00001309  00000-0  11732-3 0  9999
2 41855  97.9419 191.7561 0011736  74.0979 286.1535 14.97552384236995
INS-1B                  
1 41954U 17008G   21074.37084908  .00003335  00000-0  13323-3 0  9991
2 41954  97.3182 139.5174 0010410  69.8493 290.3864 15.25772996226667
BGUSAT                  
1 41999U 17008BD  21074.22267699  .00006463  00000-0  23023-3 0  9997
2 41999  97.3336 145.2261 0009142  75.6855 284.5400 15.29232643226301
DIDO-2                  
1 42000U 17008BE  21074.41283370  .00001866  00000-0  77243-4 0  9992
2 42000  97.3190 139.9073 0010004  85.7928 274.4453 15.25131324226054
PEASSS                  
1 42015U 17008BV  21074.36681844  .00003042  00000-0  11918-3 0  9994
2 42015  97.3220 142.0703 0007910  87.1103 273.1041 15.26514470226666
AL-FARABI 1             
1 42016U 17008BW  21074.15393558  .00003940  00000-0  14856-3 0  9995
2 42016  97.3263 143.4202 0007699  87.0080 273.2040 15.27616524226833
NAYIF-1 (EO-88)         
1 42017U 17008BX  21074.38680416  .00004023  00000-0  15137-3 0  9999
2 42017  97.3255 143.6573 0007743  85.7672 274.4452 15.27668306226891
UCLSAT                  
1 42765U 17036A   21074.40950369  .00003096  00000-0  12873-3 0  9993
2 42765  97.2626 126.9019 0012068 143.3698 216.8368 15.24456701207847
LITUANICASAT-2          
1 42768U 17036D   21074.17833547  .00005454  00000-0  21672-3 0  9995
2 42768  97.2698 127.2024 0015421 135.4365 224.8116 15.25609168207093
AALTO-1                 
1 42775U 17036L   21074.37282987  .00001721  00000-0  77196-4 0  9997
2 42775  97.2605 123.8565 0014702 140.9644 219.2656 15.22425769206886
URSA MAIOR              
1 42776U 17036M   21074.39082766  .00001845  00000-0  81950-4 0  9993
2 42776  97.2619 124.2875 0014526 140.4278 219.8022 15.22666662206908
COMPASS 2               
1 42777U 17036N   21074.44651283  .00004046  00000-0  16384-3 0  9990
2 42777  97.2680 127.7206 0013170 135.2728 224.9575 15.25152586207087
DIAMOND RED             
1 42783U 17036U   21074.08020690  .00001986  00000-0  85759-4 0  9992
2 42783  97.2633 125.5449 0012683 147.7706 212.4309 15.23570816206948
PEGASUS                 
1 42784U 17036V   21074.36400874  .00002796  00000-0  11787-3 0  9999
2 42784  97.2634 126.4295 0012611 145.2437 214.9627 15.24063455207021
DIAMOND GREEN           
1 42785U 17036W   21074.40762395  .00002164  00000-0  93170-4 0  9990
2 42785  97.2635 125.9057 0012622 147.3647 212.8373 15.23579566207064
DIAMOND BLUE            
1 42786U 17036X   21074.40662570  .00002120  00000-0  91357-4 0  9992
2 42786  97.2634 125.8983 0012462 147.4753 212.7255 15.23576359207067
NUDTSAT                 
1 42787U 17036Y   21074.61513847  .00003096  00000-0  12376-3 0  9994
2 42787  97.2700 128.7815 0010713 135.2869 224.9236 15.25799673207026
SUCHAI                  
1 42788U 17036Z   21074.40960432  .00003376  00000-0  13876-3 0  9995
2 42788  97.2643 127.3444 0012202 142.4879 217.7213 15.24777711207159
SKCUBE                  
1 42789U 17036AA  21074.35784611  .00003113  00000-0  12907-3 0  9996
2 42789  97.2637 127.0496 0012075 143.1883 217.0186 15.24547177207050
VZLUSAT-1               
1 42790U 17036AB  21074.41112333  .00004430  00000-0  17591-3 0  9998
2 42790  97.2667 128.5725 0011612 139.3514 220.8594 15.25781813207143
ROBUSTA-1B              
1 42792U 17036AD  21074.34095632  .00003265  00000-0  13435-3 0  9992
2 42792  97.2639 127.3766 0011668 143.0556 217.1488 15.24772893207086
CICERO 6                
1 42793U 17036AE  21074.40217605  .00001882  00000-0  80910-4 0  9992
2 42793  97.2616 126.4325 0010956 145.9106 214.2837 15.23796499207111
D-SAT                   
1 42794U 17036AF  21074.50401463  .00000320  00000-0  32767-4 0  9994
2 42794  97.4699  99.3502 0125826 179.1770 180.9681 14.91478639203051
CORVUS BC2              
1 42846U 17042X   21074.55765257  .00000200  00000-0  24804-4 0  9998
2 42846  97.4874 311.3044 0011173  92.1126 268.1374 14.92246024199830
CORVUS BC1              
1 42847U 17042Y   21074.53486425  .00000515  00000-0  55520-4 0  9992
2 42847  97.4877 311.5030 0010791  91.4254 268.8202 14.92348051199830
MIRATA                  
1 43015U 17073C   21074.45250912  .00001756  00000-0  14012-3 0  9993
2 43015  97.7105 342.3402 0249290 243.9171 113.6194 14.80428855179305
MAKERSAT 0              
1 43016U 17073D   21074.23953556  .00001206  00000-0  98546-4 0  9999
2 43016  97.7139 342.2280 0252778 246.4524 110.9952 14.79772918179246
DELLINGR (RBLE)         
1 43021U 98067NJ  21074.41478373  .00102473  00000-0  35460-3 0  9999
2 43021  51.6292 322.2722 0000829 155.4266 204.6779 15.88690619189629
AEROCUBE 7B (OCSD B)    
1 43042U 17071F   21074.52355097  .00010854  00000-0  22011-3 0  9996
2 43042  51.6370 173.7241 0003723 327.7575  32.3184 15.46914684184285
AEROCUBE 7C (OCSD C)    
1 43043U 17071G   21074.53634339  .00011088  00000-0  22580-3 0  9998
2 43043  51.6364 173.8210 0003982 331.3147  28.7620 15.46767916184254
CHEFSAT                 
1 43044U 17071H   21074.44151110  .00024810  00000-0  35847-3 0  9997
2 43044  51.6349 146.5778 0003888 349.6408  10.4503 15.55782597184611
ASGARDIA 1              
1 43049U 17071N   21074.46846347  .00010938  00000-0  22342-3 0  9999
2 43049  51.6381 173.4786 0002069 355.0251   5.0716 15.46696884184256
ISARA                   
1 43050U 17071P   21074.54183544  .00022016  00000-0  34450-3 0  9996
2 43050  51.6330 151.5523 0002208   3.9028 356.1979 15.53673592184557
PROPCUBE 2 (FAUNA)      
1 43052U 17071R   21074.54901129  .00011500  00000-0  22852-3 0  9994
2 43052  51.6367 170.2744 0001996 354.0462   6.0502 15.47443495184291
CORVUS BC3              
1 43118U 18004H   21074.46722199  .00001741  00000-0  74772-4 0  9998
2 43118  97.4118 148.1349 0010316 171.2882 188.8536 15.23986284176268
MICROMAS-2A             
1 43131U 18004W   21074.48454733  .00005499  00000-0  21186-3 0  9995
2 43131  97.4183 151.0186 0009104 165.1351 195.0157 15.26724392176423
SPACEBEE-4              
1 43139U 18004AE  21074.43848046  .00007642  00000-0  27664-3 0  9991
2 43139  97.4239 152.9546 0008519 163.8699 196.2813 15.28656978176521
SPACEBEE-3              
1 43140U 18004AF  21074.24942244  .00009826  00000-0  33939-3 0  9995
2 43140  97.4265 153.9900 0008163 161.2775 198.8767 15.30113769176568
SPACEBEE-2              
1 43141U 18004AG  21074.48801900  .00011027  00000-0  37459-3 0  9992
2 43141  97.4282 154.6993 0008140 159.2919 200.8654 15.30624370176621
SPACEBEE-1              
1 43142U 18004AH  21074.17957716  .00012363  00000-0  41195-3 0  9992
2 43142  97.4289 154.8592 0008064 159.4764 200.6802 15.31218077176594
CICERO 7                
1 43143U 18004AJ  21074.15946622  .00004694  00000-0  18177-3 0  9997
2 43143  97.4159 150.7924 0007145 172.6122 187.5223 15.26640770176390
GOMX-4B                 
1 43196U 18015E   21074.36720407  .00000989  00000-0  42746-4 0  9994
2 43196  97.4688 207.5324 0017178 227.7786 132.1994 15.24780650173179
GOMX-4A                 
1 43197U 18015F   21074.53878769  .00001672  00000-0  69383-4 0  9995
2 43197  97.4671 207.8959 0017344 229.2124 198.4100 15.25158595173225
TEMPEST-D               
1 43547U 98067NV  21074.38515210  .00184003  00000-0  91568-3 0  9990
2 43547  51.6362  14.1569 0001076  40.0905 320.0176 15.80842563152016
AEROCUBE 12A            
1 43556U 18046C   21074.50291564  .00003765  00000-0  13507-3 0  9998
2 43556  51.6396 242.0705 0007893 181.7303 178.3652 15.31177321148887
AEROCUBE 12B            
1 43557U 18046D   21074.56365642  .00003198  00000-0  11832-3 0  9993
2 43557  51.6391 243.2004 0008042 181.1248 178.9716 15.30669812148828
SURFSAT                 
1 43614U 18070B   21074.55782560  .00006306  00000-0  15155-3 0  9991
2 43614  93.0224 266.9710 0015039  18.5475 341.6326 15.41233315140209
CP7 (DAVE)              
1 43615U 18070C   21074.49354200  .00006023  00000-0  14599-3 0  9998
2 43615  93.0227 266.9121 0015220  18.5559 341.6248 15.40975641140188
